COMMENT,ORIGINATOR,NORAD_CAT_ID,OBJECT_NAME,OBJECT_TYPE,CLASSIFICATION_TYPE,INTLDES,EPOCH,EPOCH_MICROSECONDS,MEAN_MOTION,ECCENTRICITY,INCLINATION,RA_OF_ASC_NODE,ARG_OF_PERICENTER,MEAN_ANOMALY,EPHEMERIS_TYPE,ELEMENT_SET_NO,REV_AT_EPOCH,BSTAR,MEAN_MOTION_DOT,MEAN_MOTION_DDOT,FILE,TLE_LINE0,TLE_LINE1,TLE_LINE2,OBJECT_ID,OBJECT_NUMBER,SEMIMAJOR_AXIS,PERIOD,APOGEE,PERIGEE,DECAYED
GENERATED VIA SPACETRACK.ORG API,18 SPCS,58292,UMBRA-08,PAYLOAD,U,23174AN,2024-11-01 18:54:22,208256,15.22481374,0.0002243,97.4398,17.2682,297.3635,62.7372,0,999,5445,0.0041868,0.00098103,0,4541060,0 UMBRA-08,1 58292U 23174AN  24306.78775704  .00098103  00000-0  41868-2 0  9993,2 58292  97.4398  17.2682 0002243 297.3635  62.7372 15.22481374 54452,2023-174AN,58292,6876.496,94.582,499.903,496.818,1
GENERATED VIA SPACETRACK.ORG API,18 SPCS,58292,UMBRA-08,PAYLOAD,U,23174AN,2024-11-02 10:40:45,781248,15.2259632,0.0002269,97.4394,17.9188,294.126,65.9739,0,999,5455,0.0035371,0.00082979,0,4541595,0 UMBRA-08,1 58292U 23174AN  24307.44497432  .00082979  00000-0  35371-2 0  9992,2 58292  97.4394  17.9188 0002269 294.1260  65.9739 15.22596320 54554,2023-174AN,58292,6876.150,94.575,499.575,496.455,1
GENERATED VIA SPACETRACK.ORG API,18 SPCS,58292,UMBRA-08,PAYLOAD,U,23174AN,2024-11-02 10:40:45,781248,15.2259632,0.0002269,97.4394,17.9188,294.126,65.9739,0,999,5455,0.0035371,0.00082979,0,4541625,0 UMBRA-08,1 58292U 23174AN  24307.44497432  .00082979  00000-0  35371-2 0  9992,2 58292  97.4394  17.9188 0002269 294.1260  65.9739 15.22596320 54554,2023-174AN,58292,6876.150,94.575,499.575,496.455,1
GENERATED VIA SPACETRACK.ORG API,18 SPCS,58292,UMBRA-08,PAYLOAD,U,23174AN,2024-11-02 18:33:55,677312,15.22677087,0.0002436,97.4394,18.2442,293.7873,66.3108,0,999,5460,0.0044459,0.00104877,0,4541965,0 UMBRA-08,1 58292U 23174AN  24307.77356108  .00104877  00000-0  44459-2 0  9991,2 58292  97.4394  18.2442 0002436 293.7873  66.3108 15.22677087 54603,2023-174AN,58292,6875.907,94.570,499.447,496.097,1
GENERATED VIA SPACETRACK.ORG API,18 SPCS,58292,UMBRA-08,PAYLOAD,U,23174AN,2024-11-02 18:33:55,677312,15.22677087,0.0002436,97.4394,18.2442,293.7873,66.3108,0,999,5460,0.0044459,0.00104877,0,4541988,0 UMBRA-08,1 58292U 23174AN  24307.77356108  .00104877  00000-0  44459-2 0  9991,2 58292  97.4394  18.2442 0002436 293.7873  66.3108 15.22677087 54603,2023-174AN,58292,6875.907,94.570,499.447,496.097,1
GENERATED VIA SPACETRACK.ORG API,18 SPCS,58292,UMBRA-08,PAYLOAD,U,23174AN,2024-11-03 04:01:41,572128,15.22776629,0.0002443,97.4391,18.6342,291.3936,68.704,0,999,5466,0.0046884,0.00111018,0,4542297,0 UMBRA-08,1 58292U 23174AN  24308.16784227  .00111018  00000-0  46884-2 0  9991,2 58292  97.4391  18.6342 0002443 291.3936  68.7040 15.22776629 54664,2023-174AN,58292,6875.607,94.564,499.152,495.792,1
GENERATED VIA SPACETRACK.ORG API,18 SPCS,58292,UMBRA-08,PAYLOAD,U,23174AN,2024-11-03 04:01:41,572128,15.22776629,0.0002443,97.4391,18.6342,291.3936,68.704,0,999,5466,0.0046884,0.00111018,0,4542611,0 UMBRA-08,1 58292U 23174AN  24308.16784227  .00111018  00000-0  46884-2 0  9991,2 58292  97.4391  18.6342 0002443 291.3936  68.7040 15.22776629 54664,2023-174AN,58292,6875.607,94.564,499.152,495.792,1
GENERATED VIA SPACETRACK.ORG API,18 SPCS,58292,UMBRA-08,PAYLOAD,U,23174AN,2024-11-03 18:13:16,959648,15.22889535,0.0002545,97.439,19.2201,291.6843,68.4123,0,999,5475,0.0037234,0.00088173,0,4543022,0 UMBRA-08,1 58292U 23174AN  24308.75922407  .00088173  00000-0  37234-2 0  9994,2 58292  97.4390  19.2201 0002545 291.6843  68.4123 15.22889535 54757,2023-174AN,58292,6875.267,94.557,498.882,495.382,1
GENERATED VIA SPACETRACK.ORG API,18 SPCS,58292,UMBRA-08,PAYLOAD,U,23174AN,2024-11-03 18:13:16,959648,15.22889535,0.0002545,97.439,19.2201,291.6843,68.4123,0,999,5475,0.0037234,0.00088173,0,4543025,0 UMBRA-08,1 58292U 23174AN  24308.75922407  .00088173  00000-0  37234-2 0  9994,2 58292  97.4390  19.2201 0002545 291.6843  68.4123 15.22889535 54757,2023-174AN,58292,6875.267,94.557,498.882,495.382,1
GENERATED VIA SPACETRACK.ORG API,18 SPCS,58292,UMBRA-08,PAYLOAD,U,23174AN,2024-11-04 03:40:58,297728,15.22976369,0.0002581,97.439,19.6102,290.0655,70.0303,0,999,5481,0.0044001,0.00104713,0,4543452,0 UMBRA-08,1 58292U 23174AN  24309.15345252  .00104713  00000-0  44001-2 0  9995,2 58292  97.4390  19.6102 0002581 290.0655  70.0303 15.22976369 54813,2023-174AN,58292,6875.006,94.552,498.645,495.096,1
GENERATED VIA SPACETRACK.ORG API,18 SPCS,58292,UMBRA-08,PAYLOAD,U,23174AN,2024-11-04 11:34:01,326720,15.23047491,0.0002564,97.4391,19.9361,290.8518,69.2444,0,999,5486,0.0050393,0.00120443,0,4543735,0 UMBRA-08,1 58292U 23174AN  24309.48195980  .00120443  00000-0  50393-2 0  9991,2 58292  97.4391  19.9361 0002564 290.8518  69.2444 15.23047491 54868,2023-174AN,58292,6874.792,94.547,498.419,494.894,1
GENERATED VIA SPACETRACK.ORG API,18 SPCS,58292,UMBRA-08,PAYLOAD,U,23174AN,2024-11-04 22:36:15,456384,15.231356,0.0002543,97.4392,20.3916,288.007,72.0889,0,999,5493,0.0038316,0.00091439,0,4544013,0 UMBRA-08,1 58292U 23174AN  24309.94184556  .00091439  00000-0  38316-2 0  9992,2 58292  97.4392  20.3916 0002543 288.0070  72.0889 15.23135600 54933,2023-174AN,58292,6874.527,94.542,498.140,494.643,1
GENERATED VIA SPACETRACK.ORG API,18 SPCS,58292,UMBRA-08,PAYLOAD,U,23174AN,2024-11-05 03:20:03,760224,15.23168819,0.0002463,97.439,20.5868,286.5455,73.5511,0,999,5496,0.0034869,0.00083195,0,4544345,0 UMBRA-08,1 58292U 23174AN  24310.13893241  .00083195  00000-0  34869-2 0  9992,2 58292  97.4390  20.5868 0002463 286.5455  73.5511 15.23168819 54969,2023-174AN,58292,6874.427,94.540,497.985,494.598,1
GENERATED VIA SPACETRACK.ORG API,18 SPCS,58292,UMBRA-08,PAYLOAD,U,23174AN,2024-11-05 11:13:03,301248,15.23226602,0.000242,97.4389,20.9126,287.8165,72.2808,0,999,5501,0.0038697,0.00092611,0,4544736,0 UMBRA-08,1 58292U 23174AN  24310.46739932  .00092611  00000-0  38697-2 0  9990,2 58292  97.4389  20.9126 0002420 287.8165  72.2808 15.23226602 55010,2023-174AN,58292,6874.253,94.536,497.781,494.454,1
GENERATED VIA SPACETRACK.ORG API,18 SPCS,58292,UMBRA-08,PAYLOAD,U,23174AN,2024-11-06 02:58:58,926432,15.23351948,0.0002472,97.4388,21.5629,284.3161,75.7802,0,999,5511,0.0031956,0.00076583,0,4545367,0 UMBRA-08,1 58292U 23174AN  24311.12429313  .00076583  00000-0  31956-2 0  9994,2 58292  97.4388  21.5629 0002472 284.3161  75.7802 15.23351948 55114,2023-174AN,58292,6873.876,94.528,497.440,494.041,1
GENERATED VIA SPACETRACK.ORG API,18 SPCS,58292,UMBRA-08,PAYLOAD,U,23174AN,2024-11-06 10:51:54,925920,15.23418081,0.000247,97.4386,21.8886,284.8906,75.2057,0,999,5516,0.0038226,0.00091994,0,4545797,0 UMBRA-08,1 58292U 23174AN  24311.45271905  .00091994  00000-0  38226-2 0  9992,2 58292  97.4386  21.8886 0002470 284.8906  75.2057 15.23418081 55164,2023-174AN,58292,6873.677,94.524,497.240,493.844,1
GENERATED VIA SPACETRACK.ORG API,18 SPCS,58292,UMBRA-08,PAYLOAD,U,23174AN,2024-11-06 10:51:54,925920,15.23418081,0.000247,97.4386,21.8886,284.8906,75.2057,0,999,5516,0.0038226,0.00091994,0,4545811,0 UMBRA-08,1 58292U 23174AN  24311.45271905  .00091994  00000-0  38226-2 0  9992,2 58292  97.4386  21.8886 0002470 284.8906  75.2057 15.23418081 55164,2023-174AN,58292,6873.677,94.524,497.240,493.844,1
GENERATED VIA SPACETRACK.ORG API,18 SPCS,58292,UMBRA-08,PAYLOAD,U,23174AN,2024-11-06 17:10:14,905920,15.23467283,0.0002572,97.4386,22.149,284.559,75.5362,0,999,5520,0.0036604,0.00088171,0,4546162,0 UMBRA-08,1 58292U 23174AN  24311.71545030  .00088171  00000-0  36604-2 0  9995,2 58292  97.4386  22.1490 0002572 284.5590  75.5362 15.23467283 55203,2023-174AN,58292,6873.529,94.521,497.162,493.626,1
GENERATED VIA SPACETRACK.ORG API,18 SPCS,58292,UMBRA-08,PAYLOAD,U,23174AN,2024-11-07 04:12:17,985024,15.23556919,0.0002625,97.4384,22.6042,281.6394,78.4549,0,999,5527,0.0035378,0.0008541,0,4546484,0 UMBRA-08,1 58292U 23174AN  24312.17520816  .00085410  00000-0  35378-2 0  9991,2 58292  97.4384  22.6042 0002625 281.6394  78.4549 15.23556919 55279,2023-174AN,58292,6873.259,94.516,496.928,493.320,1
GENERATED VIA SPACETRACK.ORG API,18 SPCS,58292,UMBRA-08,PAYLOAD,U,23174AN,2024-11-08 03:50:51,907200,15.23728157,0.0002751,97.4384,23.5806,279.3622,80.7304,0,999,5542,0.0037038,0.00089931,0,4547295,0 UMBRA-08,1 58292U 23174AN  24313.16032300  .00089931  00000-0  37038-2 0  9994,2 58292  97.4384  23.5806 0002751 279.3622  80.7304 15.23728157 55422,2023-174AN,58292,6872.744,94.505,496.500,492.718,1
GENERATED VIA SPACETRACK.ORG API,18 SPCS,58292,UMBRA-08,PAYLOAD,U,23174AN,2024-11-08 16:27:22,97088,15.23816633,0.0002724,97.4385,24.1021,280.425,79.668,0,999,5550,0.0035308,0.00085905,0,4547960,0 UMBRA-08,1 58292U 23174AN  24313.68567242  .00085905  00000-0  35308-2 0  9994,2 58292  97.4385  24.1021 0002724 280.4250  79.6680 15.23816633 55509,2023-174AN,58292,6872.478,94.500,496.215,492.471,1
GENERATED VIA SPACETRACK.ORG API,18 SPCS,58292,UMBRA-08,PAYLOAD,U,23174AN,2024-11-09 11:22:01,689888,15.23984129,0.0002609,97.4387,24.8832,277.9067,82.1873,0,999,5562,0.0046954,0.00115288,0,4548661,0 UMBRA-08,1 58292U 23174AN  24314.47363067  .00115288  00000-0  46954-2 0  9998,2 58292  97.4387  24.8832 0002609 277.9067  82.1873 15.23984129 55629,2023-174AN,58292,6871.975,94.489,495.632,492.047,1
GENERATED VIA SPACETRACK.ORG API,18 SPCS,58292,UMBRA-08,PAYLOAD,U,23174AN,2024-11-09 11:22:01,689888,15.23984129,0.0002609,97.4387,24.8832,277.9067,82.1873,0,999,5562,0.0046954,0.00115288,0,4548669,0 UMBRA-08,1 58292U 23174AN  24314.47363067  .00115288  00000-0  46954-2 0  9998,2 58292  97.4387  24.8832 0002609 277.9067  82.1873 15.23984129 55629,2023-174AN,58292,6871.975,94.489,495.632,492.047,1
GENERATED VIA SPACETRACK.ORG API,18 SPCS,58292,UMBRA-08,PAYLOAD,U,23174AN,2024-11-09 11:22:01,805664,15.23995647,0.0002617,97.4389,24.8834,278.9063,81.1878,0,999,5562,0.0070577,0.00174791,0,4549028,0 UMBRA-08,1 58292U 23174AN  24314.47363201  .00174791  00000-0  70577-2 0  9990,2 58292  97.4389  24.8834 0002617 278.9063  81.1878 15.23995647 55620,2023-174AN,58292,6871.940,94.488,495.603,492.007,1
